IRIDIUM 126             
1 42809U 17039G   24355.37280864  .00000382  00000+0  12927-3 0  9996
2 42809  86.3987 220.8600 0001884  76.2112 283.9293 14.34219464392002
IRIDIUM 124             
1 42810U 17039H   24355.49860617  .00000574  00000+0  16454-3 0  9993
2 42810  86.4517 157.6514 0001702  99.6384 260.5009 14.43274959396699
IRIDIUM 128             
1 42811U 17039J   24355.43331887  .00000626  00000+0  21660-3 0  9993
2 42811  86.3972 252.3436 0001763  84.9184 275.2213 14.34215393392044
IRIDIUM 121             
1 42812U 17039K   24355.60114495 -.00000041  00000+0 -21599-4 0  9992
2 42812  86.3987 220.7886 0001811  88.7507 271.3896 14.34217234391919
IRIDIUM 133             
1 42955U 17061A   24355.46502759  .00000151  00000+0  46894-4 0  9998
2 42955  86.3972 252.4346 0001968  83.6352 276.5067 14.34219492376849
IRIDIUM 100             
1 42956U 17061B   24355.45868916  .00000442  00000+0  15063-3 0  9994
2 42956  86.3969 252.3686 0002047  81.1913 278.9514 14.34216093376844
IRIDIUM 122             
1 42957U 17061C   24355.42697529 -.00000050  00000+0 -24978-4 0  9995
2 42957  86.3973 252.3806 0001758  74.9210 285.2181 14.34217238376845
IRIDIUM 129             
1 42958U 17061D   24355.45234701  .00000046  00000+0  94882-5 0  9993
2 42958  86.3970 252.4313 0002482  79.7701 280.3774 14.34217515376864
